[{"OBJECT_NAME":"GONETS-M 21","OBJECT_ID":"2020-091B","EPOCH":"2026-03-09T23:14:21.366240","MEAN_MOTION":12.4288111,"ECCENTRICITY":0.00158579,"INCLINATION":82.5026,"RA_OF_ASC_NODE":2.8767,"ARG_OF_PERICENTER":52.2231,"MEAN_ANOMALY":308.0282,"EPHEMERIS_TYPE":0,"CLASSIFICATION_TYPE":"U","NORAD_CAT_ID":47228,"ELEMENT_SET_NO":999,"REV_AT_EPOCH":23874,"BSTAR":0.00013826569,"MEAN_MOTION_DOT":2.9e-7,"MEAN_MOTION_DDOT":0},{"OBJECT_NAME":"ESSA 6 (TOS-D)","OBJECT_ID":"1967-114A","EPOCH":"2026-03-09T21:49:42.665376","MEAN_MOTION":12.54247921,"ECCENTRICITY":0.00485173,"INCLINATION":102.006,"RA_OF_ASC_NODE":172.5389,"ARG_OF_PERICENTER":313.1628,"MEAN_ANOMALY":156.614,"EPHEMERIS_TYPE":0,"CLASSIFICATION_TYPE":"U","NORAD_CAT_ID":3035,"ELEMENT_SET_NO":999,"REV_AT_EPOCH":67016,"BSTAR":5.3247594e-5,"MEAN_MOTION_DOT":-3.8e-7,"MEAN_MOTION_DDOT":0}]
